#aV2019 11 15  0  0  0.00000000     288 DD+AD WGS84 FIT  NGA
## 2079 432000.00000000   300.00000000 58802 0.0000000000000
+   32     1  2  3  4  5  6  7  8  9 10 11 12 13 14 15 16 17
+         18 19 20 21 22 23 24 25 26 27 28 29 30 31 32  0  0
+          0  0  0  0  0  0  0  0  0  0  0  0  0  0  0  0  0
+          0  0  0  0  0  0  0  0  0  0  0  0  0  0  0  0  0
+          0  0  0  0  0  0  0  0  0  0  0  0  0  0  0  0  0
++         2  2  2  2  2  2  2  2  2  2  2  2  2  2  2  2  2
++         2  2  2  2  2  2  2  2  2  2  2  2  2  2  2  0  0
++         0  0  0  0  0  0  0  0  0  0  0  0  0  0  0  0  0
++         0  0  0  0  0  0  0  0  0  0  0  0  0  0  0  0  0
++         0  0  0  0  0  0  0  0  0  0  0  0  0  0  0  0  0
%c cc cc ccc ccc cccc cccc cccc cccc ccccc ccccc ccccc ccccc
%c cc cc ccc ccc cccc cccc cccc cccc ccccc ccccc ccccc ccccc
%f  0.0000000  0.000000000  0.00000000000  0.000000000000000
%f  0.0000000  0.000000000  0.00000000000  0.000000000000000
%i    0    0    0    0      0      0      0      0         0
%i    0    0    0    0      0      0      0      0         0
/*      NGA, ST. LOUIS,MO.                                  
/*   EPHEMERIS COMPUTED FROM 2 DAYS OF DATA                 
/*   EPOCHA v5 SMOOTHER                                     
/*   G1762 IERS2010 SATAF SATAPC                            
*  2019 11 15 12 25  0.00000000
P  1  14187.667523  13619.958146 -18203.239178   -198.033954                    
V  1 -22544.341417  -1013.810259 -18227.528270     -0.126841                    
P  2   9460.439458 -14447.764215  20773.689453   -347.218765                    
V  2  25006.671902   1435.499323 -10836.716302     -0.076558                    
P  3  13561.192123  22541.741143   3937.118502    -37.044324                    
V  3   -227.033810   5691.821129 -31239.834207     -0.058124                    
P  4  15962.931193   3183.923665  20984.903386     -9.300138                    
V  4 -15310.186503  21798.511963   8372.745847     -0.040493                    
P  5   -200.266774 -22452.252981  13894.612278     -3.482480                    
V  5  10390.771132  14896.438354  24177.209169     -0.004524                    
P  6  22218.087638  -6864.937327  12904.564727   -124.346766                    
V  6  16061.419010   3172.397592 -26031.879622     -0.119334                    
P  7  25525.500803   6396.549559   5447.587192   -149.280350                    
V  7  -6686.995219   1829.752676  30317.928396     -0.081319                    
P  8  -1846.403823  21472.560305 -15338.583847    -13.444738                    
V  8 -12608.214302  15145.623034  22879.562213     -0.012872                    
P  9  14947.453944   4984.158143  21328.193677    -83.935855                    
V  9 -14845.833633  22841.581914   5046.042700     -0.097190                    
P 10 -15651.884714   1599.717595 -21364.284478   -135.431941                    
V 10 -11217.915283 -24820.955485   6121.872489     -0.148000                    
P 11  10767.217841  13168.678229 -20863.460704   -447.481207                    
V 11 -23537.701688  10147.437990  -6202.190853      0.111313                    
P 12  -8943.984994 -25094.083500  -1066.448476    183.289331                    
V 12   2293.493788    272.957557 -32037.237632     -0.039485                    
P 13  11099.218257 -22149.627373  -9593.893296    -32.687713                    
V 13   9811.851516  -7339.794057  28727.733464      0.023257                    
P 14 -18106.846769  19061.806553  -2662.593556    -50.367272                    
V 14     97.475640  -4835.868825 -31627.139200      0.021442                    
P 15  -1567.162724 -21363.234790 -15749.650186   -272.499170                    
V 15  12047.195807 -15864.433872  21099.880665      0.026878                    
P 16  -3296.136779  21030.266786  15404.114931    -93.378702                    
V 16  -8654.720274 -18178.218795  23109.852690     -0.037487                    
P 17  19879.248318 -12026.900414 -12371.969348    163.378961                    
V 17  -8623.389974  14058.642461 -26690.819735      0.069216                    
P 18   5181.799627  15374.410770 -21548.948312    100.303956                    
V 18 -26193.940139   -352.464629  -6615.645670      0.025529                    
P 19  19932.604024 -16399.056645  -6596.811706   -239.464727                    
V 19  -3702.350861   7325.549245 -30751.208436      0.051928                    
P 20 -19483.728749  -7955.178857 -16416.589416    527.467197                    
V 20  -9170.451650 -18660.726647  19857.569100      0.000851                    
P 21 -26204.147758  -2765.583316   3027.185584    -85.759461                    
V 21   2995.221004  -3162.778714  31367.334591      0.059679                    
P 22  10543.492715  24123.781727  -3681.869503   -771.787555                    
V 22  -5674.038764  -2463.980273 -30490.003408     -0.025628                    
P 23   8433.544096  14568.941598  20811.563601   -155.400366                    
V 23 -15202.457413  20866.688848  -8976.021462      0.022677                    
P 24 -12343.953002 -14293.304914 -18981.831613     -4.931771                    
V 24  23733.268445   -740.841812 -14659.347039     -0.005777                    
P 25 -16831.131734 -16816.262118  11856.801789    -17.136225                    
V 25  -4592.877446 -14721.920460 -26657.469612     -0.003572                    
P 26  -9509.923522  13810.055654  20538.246905     84.723545                    
V 26 -12764.509900 -22910.564237   9683.622071      0.083636                    
P 27 -11511.504701  23115.784185  -5574.301039   -120.580412                    
V 27  -5975.098961   4347.449880  31293.523991     -0.119136                    
P 28  14736.494825  -1525.419470 -21430.064419    754.996283                    
V 28   9337.240540  27066.951716   4487.179260     -0.015394                    
P 29 -13161.187980  -6873.885129  21993.601393     43.689069                    
V 29  17317.083339 -21907.627136   3487.484338     -0.100323                    
P 30  25959.944271  -1140.531207  -5950.024229    -84.369926                    
V 30   7124.339934   4090.614030  29944.258915     -0.084110                    
P 31 -21124.983412   7780.450089  14428.996015     -3.343490                    
V 31 -17852.712765  -3891.583895 -23555.440646     -0.025516                    
P 32 -19504.083919  12783.199454 -12529.990681    125.666448                    
V 32   7020.142818 -14669.648572 -25895.913574      0.121276                    
EOF
